TOMORROW-S2             
1 60485U 24149T   26068.75188364  .00008133  00000+0  27683-3 0  9990
2 60485  97.3857 150.0385 0001648 234.3331 125.7757 15.30674935 86869
STARLINK-34594          
1 65088U 25167L   26068.15392962  .00041699  00000+0  14109-2 0  9992
2 65088  53.1625  29.4450 0001835  84.8370 275.2840 15.30228068 33393
