[{"OBJECT_NAME":"TOMORROW-S2","OBJECT_ID":"2024-149T","EPOCH":"2026-03-09T18:02:42.746496","MEAN_MOTION":15.30674935,"ECCENTRICITY":0.0001648,"INCLINATION":97.3857,"RA_OF_ASC_NODE":150.0385,"ARG_OF_PERICENTER":234.3331,"MEAN_ANOMALY":125.7757,"EPHEMERIS_TYPE":0,"CLASSIFICATION_TYPE":"U","NORAD_CAT_ID":60485,"ELEMENT_SET_NO":999,"REV_AT_EPOCH":8686,"BSTAR":0.00027683033,"MEAN_MOTION_DOT":8.133e-5,"MEAN_MOTION_DDOT":0},{"OBJECT_NAME":"STARLINK-34594","OBJECT_ID":"2025-167L","EPOCH":"2026-03-09T03:41:39.519168","MEAN_MOTION":15.30228068,"ECCENTRICITY":0.00018354,"INCLINATION":53.1625,"RA_OF_ASC_NODE":29.445,"ARG_OF_PERICENTER":84.837,"MEAN_ANOMALY":275.284,"EPHEMERIS_TYPE":0,"CLASSIFICATION_TYPE":"U","NORAD_CAT_ID":65088,"ELEMENT_SET_NO":999,"REV_AT_EPOCH":3339,"BSTAR":0.0014108964,"MEAN_MOTION_DOT":0.00041699,"MEAN_MOTION_DDOT":0}]
